{
  "type": "FeatureCollection",
  "features": [
    {
      "type": "Feature",
      "properties": {
        "norad_id": 38091,
        "name": "BEIDOU-2 G5 (C05)",
        "group": "gnss",
        "lat": 2.289898193271013,
        "lon": -156.64238902888914,
        "alt_km": 35794.61308778697,
        "timestamp": "2025-12-20T03:42:47.635523+00:00",
        "meta_object_name": "BEIDOU-2 G5 (C05)",
        "meta_object_id": "2012-008A",
        "meta_epoch": "2025-12-19T16:03:31.750272",
        "meta_mean_motion": 1.00268606,
        "meta_eccentricity": 0.0012969,
        "meta_inclination": 3.1258,
        "meta_ra_of_asc_node": 70.6861,
        "meta_arg_of_pericenter": 231.3522,
        "meta_mean_anomaly": 86.1393,
        "meta_ephemeris_type": 0,
        "meta_classification_type": "U",
        "meta_norad_cat_id": 38091,
        "meta_element_set_no": 999,
        "meta_rev_at_epoch": 5056,
        "meta_bstar": 0,
        "meta_mean_motion_dot": 7.9e-07,
        "meta_mean_motion_ddot": 0,
        "tle_line1": "1 38091U 12008A   25353.66911748  .00000079  00000+0  00000+0 0  9996",
        "tle_line2": "2 38091   3.1258  70.6861 0012969 231.3522  86.1393  1.00268606 50560"
      },
      "geometry": {
        "type": "Point",
        "coordinates": [
          -156.64238902888914,
          2.289898193271013
        ]
      }
    },
    {
      "type": "Feature",
      "properties": {
        "norad_id": 38250,
        "name": "BEIDOU-2 M3 (C11)",
        "group": "gnss",
        "lat": -22.41013221547032,
        "lon": 147.08443562466127,
        "alt_km": 21505.36000492283,
        "timestamp": "2025-12-20T03:42:47.635535+00:00",
        "meta_object_name": "BEIDOU-2 M3 (C11)",
        "meta_object_id": "2012-018A",
        "meta_epoch": "2025-12-19T07:23:03.381792",
        "meta_mean_motion": 1.86230015,
        "meta_eccentricity": 0.0024195,
        "meta_inclination": 55.9145,
        "meta_ra_of_asc_node": 310.9364,
        "meta_arg_of_pericenter": 274.9131,
        "meta_mean_anomaly": 84.7979,
        "meta_ephemeris_type": 0,
        "meta_classification_type": "U",
        "meta_norad_cat_id": 38250,
        "meta_element_set_no": 999,
        "meta_rev_at_epoch": 9259,
        "meta_bstar": 0,
        "meta_mean_motion_dot": -7.8e-07,
        "meta_mean_motion_ddot": 0,
        "tle_line1": "1 38250U 12018A   25353.30767803 -.00000078  00000+0  00000+0 0  9996",
        "tle_line2": "2 38250  55.9145 310.9364 0024195 274.9131  84.7979  1.86230015 92598"
      },
      "geometry": {
        "type": "Point",
        "coordinates": [
          147.08443562466127,
          -22.41013221547032
        ]
      }
    },
    {
      "type": "Feature",
      "properties": {
        "norad_id": 38251,
        "name": "BEIDOU-2 M4 (C12)",
        "group": "gnss",
        "lat": -52.37877354811717,
        "lon": -168.11238341185432,
        "alt_km": 21495.04342751273,
        "timestamp": "2025-12-20T03:42:47.635553+00:00",
        "meta_object_name": "BEIDOU-2 M4 (C12)",
        "meta_object_id": "2012-018B",
        "meta_epoch": "2025-12-19T05:45:13.599936",
        "meta_mean_motion": 1.86229684,
        "meta_eccentricity": 0.00153935,
        "meta_inclination": 55.8157,
        "meta_ra_of_asc_node": 310.167,
        "meta_arg_of_pericenter": 278.4783,
        "meta_mean_anomaly": 81.3347,
        "meta_ephemeris_type": 0,
        "meta_classification_type": "U",
        "meta_norad_cat_id": 38251,
        "meta_element_set_no": 999,
        "meta_rev_at_epoch": 9259,
        "meta_bstar": 0,
        "meta_mean_motion_dot": -7.8e-07,
        "meta_mean_motion_ddot": 0,
        "tle_line1": "1 38251U 12018B   25353.23974074 -.00000078  00000+0  00000+0 0  9999",
        "tle_line2": "2 38251  55.8157 310.1670 0015393 278.4783  81.3347  1.86229684 92597"
      },
      "geometry": {
        "type": "Point",
        "coordinates": [
          -168.11238341185432,
          -52.37877354811717
        ]
      }
    },
    {
      "type": "Feature",
      "properties": {
        "norad_id": 38652,
        "name": "SES-5 (EGNOS/PRN 136)",
        "group": "gnss",
        "lat": -0.013655617985364835,
        "lon": 149.63658484622985,
        "alt_km": 35789.6133088185,
        "timestamp": "2025-12-20T03:42:47.635565+00:00",
        "meta_object_name": "SES-5 (EGNOS/PRN 136)",
        "meta_object_id": "2012-036A",
        "meta_epoch": "2025-12-19T13:17:17.428416",
        "meta_mean_motion": 1.00271062,
        "meta_eccentricity": 0.0001798,
        "meta_inclination": 0.056,
        "meta_ra_of_asc_node": 306.3355,
        "meta_arg_of_pericenter": 319.4841,
        "meta_mean_anomaly": 26.8788,
        "meta_ephemeris_type": 0,
        "meta_classification_type": "U",
        "meta_norad_cat_id": 38652,
        "meta_element_set_no": 999,
        "meta_rev_at_epoch": 4265,
        "meta_bstar": 0,
        "meta_mean_motion_dot": 5.8e-07,
        "meta_mean_motion_ddot": 0,
        "tle_line1": "1 38652U 12036A   25353.55367394  .00000058  00000+0  00000+0 0  9997",
        "tle_line2": "2 38652   0.0560 306.3355 0001798 319.4841  26.8788  1.00271062 42652"
      },
      "geometry": {
        "type": "Point",
        "coordinates": [
          149.63658484622985,
          -0.013655617985364835
        ]
      }
    },
    {
      "type": "Feature",
      "properties": {
        "norad_id": 38775,
        "name": "BEIDOU-2 M6 (C14)",
        "group": "gnss",
        "lat": 56.31919615721055,
        "lon": 154.1345091866791,
        "alt_km": 21529.018759113038,
        "timestamp": "2025-12-20T03:42:47.635576+00:00",
        "meta_object_name": "BEIDOU-2 M6 (C14)",
        "meta_object_id": "2012-050B",
        "meta_epoch": "2025-12-19T11:42:06.639840",
        "meta_mean_motion": 1.86230927,
        "meta_eccentricity": 0.0011333,
        "meta_inclination": 56.384,
        "meta_ra_of_asc_node": 68.8435,
        "meta_arg_of_pericenter": 343.6526,
        "meta_mean_anomaly": 16.3469,
        "meta_ephemeris_type": 0,
        "meta_classification_type": "U",
        "meta_norad_cat_id": 38775,
        "meta_element_set_no": 999,
        "meta_rev_at_epoch": 8996,
        "meta_bstar": 0,
        "meta_mean_motion_dot": -5.2e-07,
        "meta_mean_motion_ddot": 0,
        "tle_line1": "1 38775U 12050B   25353.48757685 -.00000052  00000+0  00000+0 0  9992",
        "tle_line2": "2 38775  56.3840  68.8435 0011333 343.6526  16.3469  1.86230927 89961"
      },
      "geometry": {
        "type": "Point",
        "coordinates": [
          154.1345091866791,
          56.31919615721055
        ]
      }
    },
    {
      "type": "Feature",
      "properties": {
        "norad_id": 38779,
        "name": "GSAT-10 (GAGAN/PRN 128)",
        "group": "gnss",
        "lat": -0.06252794181198322,
        "lon": -132.26313436914106,
        "alt_km": 35788.47683667317,
        "timestamp": "2025-12-20T03:42:47.635588+00:00",
        "meta_object_name": "GSAT-10 (GAGAN/PRN 128)",
        "meta_object_id": "2012-051B",
        "meta_epoch": "2025-12-19T20:14:11.960736",
        "meta_mean_motion": 1.00272348,
        "meta_eccentricity": 0.0002428,
        "meta_inclination": 0.0744,
        "meta_ra_of_asc_node": 264.9342,
        "meta_arg_of_pericenter": 218.8002,
        "meta_mean_anomaly": 351.5293,
        "meta_ephemeris_type": 0,
        "meta_classification_type": "U",
        "meta_norad_cat_id": 38779,
        "meta_element_set_no": 999,
        "meta_rev_at_epoch": 4830,
        "meta_bstar": 0,
        "meta_mean_motion_dot": -1.41e-06,
        "meta_mean_motion_ddot": 0,
        "tle_line1": "1 38779U 12051B   25353.84319399 -.00000141  00000+0  00000+0 0  9992",
        "tle_line2": "2 38779   0.0744 264.9342 0002428 218.8002 351.5293  1.00272348 48308"
      },
      "geometry": {
        "type": "Point",
        "coordinates": [
          -132.26313436914106,
          -0.06252794181198322
        ]
      }
    },
    {
      "type": "Feature",
      "properties": {
        "norad_id": 38833,
        "name": "GPS BIIF-3  (PRN 24)",
        "group": "gnss",
        "lat": -41.67870961671541,
        "lon": 12.066236445990338,
        "alt_km": 20648.879835990378,
        "timestamp": "2025-12-20T03:42:47.635614+00:00",
        "meta_object_name": "GPS BIIF-3  (PRN 24)",
        "meta_object_id": "2012-053A",
        "meta_epoch": "2025-12-19T07:58:55.415712",
        "meta_mean_motion": 2.0056508,
        "meta_eccentricity": 0.0176,
        "meta_inclination": 53.559,
        "meta_ra_of_asc_node": 150.9686,
        "meta_arg_of_pericenter": 64.0969,
        "meta_mean_anomaly": 297.6893,
        "meta_ephemeris_type": 0,
        "meta_classification_type": "U",
        "meta_norad_cat_id": 38833,
        "meta_element_set_no": 999,
        "meta_rev_at_epoch": 9583,
        "meta_bstar": 0,
        "meta_mean_motion_dot": 5.7e-07,
        "meta_mean_motion_ddot": 0,
        "tle_line1": "1 38833U 12053A   25353.33258583  .00000057  00000+0  00000+0 0  9991",
        "tle_line2": "2 38833  53.5590 150.9686 0176000  64.0969 297.6893  2.00565080 95832"
      },
      "geometry": {
        "type": "Point",
        "coordinates": [
          12.066236445990338,
          -41.67870961671541
        ]
      }
    }
  ]
}